HST                     
1 20580U 90037B   26177.59632385  .00006617  00000+0  20803-3 0  9993
2 20580  28.4732  16.2651 0001399 256.6270 103.4171 15.30851283790014
POLAR                   
1 23802U 96013A   26176.50959110  .00000140  00000+0  00000+0 0  9999
2 23802  79.8647 226.9545 6478686 208.7930  90.3879  1.29846072144975
SWAS                    
1 25560U 98071A   26177.49080764  .00002487  00000+0  16053-3 0  9992
2 25560  69.8944 203.5256 0008775 250.5098 109.5118 15.09667021498675
CXO                     
1 25867U 99040B   26179.95532601  .00000592  00000+0  00000+0 0  9990
2 25867  56.3077 116.3625 7815439 310.1470   0.3486  0.37796038 17366
XMM-NEWTON              
1 25989U 99066A   26179.31942051  .00000041  00000+0  00000+0 0  9996
2 25989  64.4273 282.8431 4670867  64.6865   0.1170  0.50127671 23061
TERRA                   
1 25994U 99068A   26177.62404847  .00000349  00000+0  79902-4 0  9995
2 25994  97.9452 226.7960 0002327 162.1758 358.8950 14.61109889410980
CLUSTER II-FM7 (SAMBA)  
1 26410U 00041A   26177.06472445  .00005882  00000+0  00000+0 0  9994
2 26410 149.9012  52.3742 9061812 269.6784 359.6419  0.44870397 20352
CLUSTER II-FM8 (TANGO)  
1 26464U 00045B   26175.19428720  .00005465  00000+0  00000+0 0  9993
2 26464 150.1276  53.1676 9064570 270.3044   2.6399  0.44426562 20346
ODIN                    
1 26702U 01007A   26177.54689141  .00222224  00000+0  12112-2 0  9998
2 26702  97.3804 219.1111 0006273 135.3308 224.8466 15.79292674390878
TIMED                   
1 26998U 01055B   26177.50862460  .00000881  00000+0  83524-4 0  9991
2 26998  74.0663 216.2498 0001591 323.1506  36.9569 14.95310162332211
CORIOLIS                
1 27640U 03001A   26177.49856367  .00000098  00000+0  66529-4 0  9992
2 27640  98.7126 184.2411 0013918 181.2544 178.8600 14.19947206215542
SORCE                   
1 27651U 03004A   26177.37095463  .00002504  00000+0  18970-3 0  9996
2 27651  39.9890 209.2790 0016292 120.2033 240.0376 15.03752258273283
MOST                    
1 27843U 03031D   26177.01087684  .00000070  00000+0  52350-4 0  9993
2 27843  98.7043 184.6137 0009029 221.9737 138.0749 14.21324205191960
SCISAT 1                
1 27858U 03036A   26177.34211443  .00000600  00000+0  81284-4 0  9999
2 27858  73.9289 153.1532 0008247 223.3059 136.7470 14.81457115232805
SWIFT                   
1 28485U 04047A   26176.96242316  .00058534  00000+0  47118-3 0  9995
2 28485  20.5514 117.1679 0001440  63.2059 296.8534 15.69134889188246
HINODE (SOLAR-B)        
1 29479U 06041A   26177.31501139  .00000692  00000+0  12724-3 0  9993
2 29479  98.0544 193.3330 0015967 258.1665 101.7750 14.68634476 56210
SHIJIAN-6 02A (SJ-6 02A)
1 29505U 06046A   26177.72201859  .00009137  00000+0  46490-3 0  9999
2 29505  97.6358 218.8602 0004621 103.1290 257.0459 15.17051233 73715
SHIJIAN-6 02B (SJ-6 02B)
1 29506U 06046B   26177.74349888  .00001459  00000+0  11760-3 0  9998
2 29506  97.7162 206.7433 0015321  33.4711 326.7479 15.01399094 72178
FGRST (GLAST)           
1 33053U 08029A   26177.59189692  .00002598  00000+0  90722-4 0  9992
2 33053  25.5805 139.1753 0008421  78.3295 281.8188 15.23982538997275
SDO                     
1 36395U 10005A   26177.24254086 -.00000095  00000+0  00000+0 0  9999
2 36395  34.6701  86.2043 0001578  47.1184 126.1758  1.00270715 60153
CRYOSAT 2               
1 36508U 10013A   26177.73032353  .00000109  00000+0  26305-4 0  9995
2 36508  92.0360 279.6213 0002131  94.5544 265.5907 14.51902116859468
X-SAT                   
1 37389U 11015C   26177.77344378  .00000218  00000+0  11043-3 0  9996
2 37389  98.3508 154.3400 0013299 319.6939  40.3255 14.25209076789049
GCOM-W1 (SHIZUKU)       
1 38337U 12025A   26177.71548222  .00000414  00000+0  10188-3 0  9997
2 38337  98.2022 118.1269 0001626  69.6018 353.6673 14.57132658750425
NUSTAR                  
1 38358U 12031A   26177.75001156  .00009630  00000+0  53910-3 0  9990
2 38358   6.0278 322.4079 0008781 251.4149  82.7776 15.08885769  1307
NEOSSAT                 
1 39089U 13009D   26177.75656147  .00000138  00000+0  62493-4 0  9995
2 39089  98.4180 357.5618 0010302 212.6639 147.3911 14.35829573698119
BRITE-AUSTRIA           
1 39091U 13009F   26177.75042693  .00000156  00000+0  67536-4 0  9996
2 39091  98.3998 356.9495 0009615 205.4279 154.6436 14.36545523698427
IRIS                    
1 39197U 13033A   26177.45789528  .00001027  00000+0  12374-3 0  9999
2 39197  97.9326  16.7059 0023048 289.9760  69.8973 14.85902165701756
HISAKI (SPRINT-A)       
1 39253U 13049A   26177.70337650  .00000105  00000+0  56976-4 0  9995
2 39253  29.7172 171.6282 0136853  94.0042 267.6185 13.55545495632714
CASSIOPE                
1 39265U 13055A   26177.73761501  .00045989 -39465-6  49792-3 0  9995
2 39265  80.9146  55.1173 0289119  30.3437 331.4178 15.26077099669124
STSAT-3                 
1 39422U 13066G   26177.63443125  .00003349  00000+0  25441-3 0  9994
2 39422  97.6212 147.3705 0010311  18.5917 341.5683 15.02806228685624
SWARM B                 
1 39451U 13067A   26177.56094292  .00003470  00000+0  12356-3 0  9992
2 39451  87.7440 339.4682 0003042  81.4589 278.7005 15.28605767684670
