OBJECT_NAME,OBJECT_ID,EPOCH,MEAN_MOTION,ECCENTRICITY,INCLINATION,RA_OF_ASC_NODE,ARG_OF_PERICENTER,MEAN_ANOMALY,EPHEMERIS_TYPE,CLASSIFICATION_TYPE,NORAD_CAT_ID,ELEMENT_SET_NO,REV_AT_EPOCH,BSTAR,MEAN_MOTION_DOT,MEAN_MOTION_DDOT
HST,1990-037B,2026-06-26T14:18:42.380640,15.30851283,.0001399,28.4732,16.2651,256.6270,103.4171,0,U,20580,999,79001,.20803E-3,.6617E-4,0
POLAR,1996-013A,2026-06-25T12:13:48.671040,1.29846072,.6478686,79.8647,226.9545,208.7930,90.3879,0,U,23802,999,14497,0,.14E-5,0
SWAS,1998-071A,2026-06-26T11:46:45.780096,15.09667021,.0008775,69.8944,203.5256,250.5098,109.5118,0,U,25560,999,49867,.16053E-3,.2487E-4,0
CXO,1999-040B,2026-06-28T22:55:40.167264,0.37796038,.78154391,56.3077,116.3625,310.1470,0.3486,0,U,25867,999,1736,0,.592E-5,0
XMM-NEWTON,1999-066A,2026-06-28T07:39:57.932064,0.50127671,.46708672,64.4273,282.8431,64.6865,0.1170,0,U,25989,999,2306,0,.41E-6,0
TERRA,1999-068A,2026-06-26T14:58:37.787808,14.61109889,.00023276,97.9452,226.7960,162.1758,358.8950,0,U,25994,999,41098,.79901811E-4,.349E-5,0
CLUSTER II-FM7 (SAMBA),2000-041A,2026-06-26T01:33:12.192480,0.44870397,.90618129,149.9012,52.3742,269.6784,359.6419,0,U,26410,999,2035,0,.5882E-4,0
CLUSTER II-FM8 (TANGO),2000-045B,2026-06-24T04:39:46.414080,0.44426562,.906457,150.1276,53.1676,270.3044,2.6399,0,U,26464,999,2034,0,.5465E-4,0
ODIN,2001-007A,2026-06-26T13:07:31.417824,15.79292674,.0006273,97.3804,219.1111,135.3308,224.8466,0,U,26702,999,39087,.12112E-2,.222224E-2,0
TIMED,2001-055B,2026-06-26T12:12:25.165440,14.95310162,.00015919,74.0663,216.2498,323.1506,36.9569,0,U,26998,999,33221,.83524218E-4,.881E-5,0
CORIOLIS,2003-001A,2026-06-26T11:57:55.901088,14.19947206,.00139187,98.7126,184.2411,181.2544,178.8600,0,U,27640,999,21554,.66528801E-4,.98E-6,0
SORCE,2003-004A,2026-06-26T08:54:10.480032,15.03752258,.00162922,39.9890,209.2790,120.2033,240.0376,0,U,27651,999,27328,.1896988E-3,.2504E-4,0
MOST,2003-031D,2026-06-26T00:15:39.758976,14.21324205,.00090293,98.7043,184.6137,221.9737,138.0749,0,U,27843,999,19196,.52349793E-4,.7E-6,0
SCISAT 1,2003-036A,2026-06-26T08:12:38.686752,14.81457115,.00082471,73.9289,153.1532,223.3059,136.7470,0,U,27858,999,23280,.81284111E-4,.6E-5,0
SWIFT,2004-047A,2026-06-25T23:05:53.361024,15.69134889,.00014404,20.5514,117.1679,63.2059,296.8534,0,U,28485,999,18824,.47117616E-3,.58534E-3,0
HINODE (SOLAR-B),2006-041A,2026-06-26T07:33:36.984096,14.68634476,.0015967,98.0544,193.3330,258.1665,101.7750,0,U,29479,999,5621,.12724E-3,.692E-5,0
SHIJIAN-6 02A (SJ-6 02A),2006-046A,2026-06-26T17:19:42.406176,15.17051233,.0004621,97.6358,218.8602,103.1290,257.0459,0,U,29505,999,7371,.4649E-3,.9137E-4,0
SHIJIAN-6 02B (SJ-6 02B),2006-046B,2026-06-26T17:50:38.303232,15.01399094,.0015321,97.7162,206.7433,33.4711,326.7479,0,U,29506,999,7217,.1176E-3,.1459E-4,0
FGRST (GLAST),2008-029A,2026-06-26T14:12:19.893888,15.23982538,.0008421,25.5805,139.1753,78.3295,281.8188,0,U,33053,999,99727,.90722E-4,.2598E-4,0
SDO,2010-005A,2026-06-26T05:49:15.530304,1.00270715,.0001578,34.6701,86.2043,47.1184,126.1758,0,U,36395,999,6015,0,-.95E-6,0
CRYOSAT 2,2010-013A,2026-06-26T17:31:39.952992,14.51902116,.0002131,92.0360,279.6213,94.5544,265.5907,0,U,36508,999,85946,.26305E-4,.109E-5,0
X-SAT,2011-015C,2026-06-26T18:33:45.542592,14.25209076,.0013299,98.3508,154.3400,319.6939,40.3255,0,U,37389,999,78904,.11043E-3,.218E-5,0
GCOM-W1 (SHIZUKU),2012-025A,2026-06-26T17:10:17.663808,14.57132658,.0001626,98.2022,118.1269,69.6018,353.6673,0,U,38337,999,75042,.10188E-3,.414E-5,0
NUSTAR,2012-031A,2026-06-26T18:00:00.998784,15.08885769,.0008781,6.0278,322.4079,251.4149,82.7776,0,U,38358,999,130,.5391E-3,.963E-4,0
NEOSSAT,2013-009D,2026-06-26T18:09:26.911008,14.35829573,.0010302,98.4180,357.5618,212.6639,147.3911,0,U,39089,999,69811,.62493E-4,.138E-5,0
BRITE-AUSTRIA,2013-009F,2026-06-26T18:00:36.886752,14.36545523,.0009615,98.3998,356.9495,205.4279,154.6436,0,U,39091,999,69842,.67536E-4,.156E-5,0
IRIS,2013-033A,2026-06-26T10:59:22.152192,14.85902165,.0023048,97.9326,16.7059,289.9760,69.8973,0,U,39197,999,70175,.12374E-3,.1027E-4,0
HISAKI (SPRINT-A),2013-049A,2026-06-26T16:52:51.729600,13.55545495,.0136853,29.7172,171.6282,94.0042,267.6185,0,U,39253,999,63271,.56976E-4,.105E-5,0
CASSIOPE,2013-055A,2026-06-26T17:42:09.936864,15.26077099,.0289119,80.9146,55.1173,30.3437,331.4178,0,U,39265,999,66912,.49792E-3,.45989E-3,-.39465E-6
STSAT-3,2013-066G,2026-06-26T15:13:34.860000,15.02806228,.00103112,97.6212,147.3705,18.5917,341.5683,0,U,39422,999,68562,.25440825E-3,.3349E-4,0
SWARM B,2013-067A,2026-06-26T13:27:45.468288,15.28605767,.00030424,87.7440,339.4682,81.4589,278.7005,0,U,39451,999,68467,.12355802E-3,.347E-4,0
